[{"OBJECT_NAME":"HXMT (HUIYAN)","OBJECT_ID":"2017-034A","EPOCH":"2026-03-03T20:28:56.313120","MEAN_MOTION":15.17370185,"ECCENTRICITY":0.0032304,"INCLINATION":43.0149,"RA_OF_ASC_NODE":49.1173,"ARG_OF_PERICENTER":200.1957,"MEAN_ANOMALY":159.7615,"EPHEMERIS_TYPE":0,"CLASSIFICATION_TYPE":"U","NORAD_CAT_ID":42758,"ELEMENT_SET_NO":999,"REV_AT_EPOCH":48165,"BSTAR":0.00036918,"MEAN_MOTION_DOT":7.373e-5,"MEAN_MOTION_DDOT":0},{"OBJECT_NAME":"SAOCOM 1A","OBJECT_ID":"2018-076A","EPOCH":"2026-03-03T19:40:12.067104","MEAN_MOTION":14.82164027,"ECCENTRICITY":0.000131,"INCLINATION":97.8883,"RA_OF_ASC_NODE":251.075,"ARG_OF_PERICENTER":82.9258,"MEAN_ANOMALY":277.2104,"EPHEMERIS_TYPE":0,"CLASSIFICATION_TYPE":"U","NORAD_CAT_ID":43641,"ELEMENT_SET_NO":999,"REV_AT_EPOCH":40049,"BSTAR":0.00017441,"MEAN_MOTION_DOT":1.337e-5,"MEAN_MOTION_DDOT":0},{"OBJECT_NAME":"H-2A R/B","OBJECT_ID":"2018-084L","EPOCH":"2026-03-03T13:33:31.413024","MEAN_MOTION":15.41030375,"ECCENTRICITY":0.0025829,"INCLINATION":98.8736,"RA_OF_ASC_NODE":278.6455,"ARG_OF_PERICENTER":46.0108,"MEAN_ANOMALY":314.3257,"EPHEMERIS_TYPE":0,"CLASSIFICATION_TYPE":"U","NORAD_CAT_ID":43682,"ELEMENT_SET_NO":999,"REV_AT_EPOCH":40483,"BSTAR":0.00061481,"MEAN_MOTION_DOT":0.00025622,"MEAN_MOTION_DDOT":0},{"OBJECT_NAME":"SAOCOM 1B","OBJECT_ID":"2020-059A","EPOCH":"2026-03-03T20:25:09.780960","MEAN_MOTION":14.82164432,"ECCENTRICITY":0.0001445,"INCLINATION":97.8882,"RA_OF_ASC_NODE":250.2038,"ARG_OF_PERICENTER":80.3099,"MEAN_ANOMALY":279.8277,"EPHEMERIS_TYPE":0,"CLASSIFICATION_TYPE":"U","NORAD_CAT_ID":46265,"ELEMENT_SET_NO":999,"REV_AT_EPOCH":29788,"BSTAR":4.6652e-5,"MEAN_MOTION_DOT":3.19e-6,"MEAN_MOTION_DDOT":0},{"OBJECT_NAME":"CSS (TIANHE)","OBJECT_ID":"2021-035A","EPOCH":"2026-03-03T19:51:54.734112","MEAN_MOTION":15.60361861,"ECCENTRICITY":0.0006655,"INCLINATION":41.4653,"RA_OF_ASC_NODE":243.8214,"ARG_OF_PERICENTER":237.2014,"MEAN_ANOMALY":122.8183,"EPHEMERIS_TYPE":0,"CLASSIFICATION_TYPE":"U","NORAD_CAT_ID":48274,"ELEMENT_SET_NO":999,"REV_AT_EPOCH":27669,"BSTAR":0.00041863,"MEAN_MOTION_DOT":0.00035156,"MEAN_MOTION_DDOT":0},{"OBJECT_NAME":"COSMOS 2550","OBJECT_ID":"2021-056A","EPOCH":"2026-03-03T20:15:44.768160","MEAN_MOTION":15.33842321,"ECCENTRICITY":0.0008329,"INCLINATION":67.1444,"RA_OF_ASC_NODE":58.6135,"ARG_OF_PERICENTER":269.0013,"MEAN_ANOMALY":91.0187,"EPHEMERIS_TYPE":0,"CLASSIFICATION_TYPE":"U","NORAD_CAT_ID":48865,"ELEMENT_SET_NO":999,"REV_AT_EPOCH":26256,"BSTAR":6.2619e-8,"MEAN_MOTION_DOT":-1.9e-6,"MEAN_MOTION_DDOT":0},{"OBJECT_NAME":"CZ-2C R/B","OBJECT_ID":"2022-058K","EPOCH":"2026-03-03T05:03:18.537408","MEAN_MOTION":15.53679339,"ECCENTRICITY":0.00421804,"INCLINATION":50.1905,"RA_OF_ASC_NODE":351.6043,"ARG_OF_PERICENTER":173.2115,"MEAN_ANOMALY":186.9436,"EPHEMERIS_TYPE":0,"CLASSIFICATION_TYPE":"U","NORAD_CAT_ID":52794,"ELEMENT_SET_NO":999,"REV_AT_EPOCH":20912,"BSTAR":0.00053677883,"MEAN_MOTION_DOT":0.00036042,"MEAN_MOTION_DDOT":0},{"OBJECT_NAME":"CZ-2C R/B","OBJECT_ID":"2022-132E","EPOCH":"2026-03-03T12:57:48.396672","MEAN_MOTION":15.61225239,"ECCENTRICITY":0.0020775,"INCLINATION":97.2955,"RA_OF_ASC_NODE":65.6729,"ARG_OF_PERICENTER":110.7693,"MEAN_ANOMALY":249.5793,"EPHEMERIS_TYPE":0,"CLASSIFICATION_TYPE":"U","NORAD_CAT_ID":54039,"ELEMENT_SET_NO":999,"REV_AT_EPOCH":18941,"BSTAR":0.00062562,"MEAN_MOTION_DOT":0.00053653,"MEAN_MOTION_DDOT":0},{"OBJECT_NAME":"GSLV R/B","OBJECT_ID":"2022-138AN","EPOCH":"2026-03-03T16:53:21.111648","MEAN_MOTION":14.96723025,"ECCENTRICITY":0.0022117,"INCLINATION":87.3886,"RA_OF_ASC_NODE":168.3653,"ARG_OF_PERICENTER":167.4561,"MEAN_ANOMALY":192.7226,"EPHEMERIS_TYPE":0,"CLASSIFICATION_TYPE":"U","NORAD_CAT_ID":54149,"ELEMENT_SET_NO":999,"REV_AT_EPOCH":18303,"BSTAR":0.00045381,"MEAN_MOTION_DOT":5.236e-5,"MEAN_MOTION_DDOT":0},{"OBJECT_NAME":"XRISM","OBJECT_ID":"2023-137A","EPOCH":"2026-03-03T19:54:02.114496","MEAN_MOTION":15.11419327,"ECCENTRICITY":0.000817,"INCLINATION":31.0031,"RA_OF_ASC_NODE":321.5673,"ARG_OF_PERICENTER":339.2113,"MEAN_ANOMALY":20.8192,"EPHEMERIS_TYPE":0,"CLASSIFICATION_TYPE":"U","NORAD_CAT_ID":57800,"ELEMENT_SET_NO":999,"REV_AT_EPOCH":13690,"BSTAR":0.00046956,"MEAN_MOTION_DOT":8.236e-5,"MEAN_MOTION_DDOT":0},{"OBJECT_NAME":"ACS3","OBJECT_ID":"2024-077B","EPOCH":"2026-03-03T17:41:18.178944","MEAN_MOTION":13.89310612,"ECCENTRICITY":0.0055273,"INCLINATION":97.2111,"RA_OF_ASC_NODE":5.1871,"ARG_OF_PERICENTER":92.6994,"MEAN_ANOMALY":268.0498,"EPHEMERIS_TYPE":0,"CLASSIFICATION_TYPE":"U","NORAD_CAT_ID":59588,"ELEMENT_SET_NO":999,"REV_AT_EPOCH":9337,"BSTAR":0.023356,"MEAN_MOTION_DOT":0.00028875,"MEAN_MOTION_DDOT":0},{"OBJECT_NAME":"SZ-21 MODULE","OBJECT_ID":"2025-246C","EPOCH":"2026-03-03T18:27:35.995968","MEAN_MOTION":15.6801182,"ECCENTRICITY":0.0001447,"INCLINATION":41.473,"RA_OF_ASC_NODE":239.7929,"ARG_OF_PERICENTER":287.9355,"MEAN_ANOMALY":72.1329,"EPHEMERIS_TYPE":0,"CLASSIFICATION_TYPE":"U","NORAD_CAT_ID":66515,"ELEMENT_SET_NO":999,"REV_AT_EPOCH":1714,"BSTAR":0.00039281,"MEAN_MOTION_DOT":0.00044751,"MEAN_MOTION_DDOT":0}]
